{"type": "FeatureCollection", "features": [ {"type": "Feature", "properties": {"norad_id": 33153, "name": "INTELSAT 25 (IS-25)", "group": "intelsat", "lat": -1.5786471673688103, "lon": 36.12737666061879, "alt_km": 35802.64965509146, "timestamp": "2025-12-04T23:34:05.398450+00:00", "meta": {"OBJECT_NAME": "INTELSAT 25 (IS-25)", "OBJECT_ID": "2008-034A", "EPOCH": "2025-12-04T11:51:49.343904", "MEAN_MOTION": 1.0027113, "ECCENTRICITY": 0.0005398, "INCLINATION": 2.205, "RA_OF_ASC_NODE": 82.7411, "ARG_OF_PERICENTER": 178.5676, "MEAN_ANOMALY": 318.723, "EPHEMERIS_TYPE": 0, "CLASSIFICATION_TYPE": "U", "NORAD_CAT_ID": 33153, "ELEMENT_SET_NO": 999, "REV_AT_EPOCH": 6374, "BSTAR": 0, "MEAN_MOTION_DOT": -2.1e-06, "MEAN_MOTION_DDOT": 0}, "tle": {"line1": "1 33153U 08034A   25338.49432111 -.00000210  00000+0  00000+0 0  9998", "line2": "2 33153   2.2050  82.7411 0005398 178.5676 318.7230  1.00271130 63743"}}, "geometry": {"type": "Point", "coordinates": [36.12737666061879, -1.5786471673688103]}}, {"type": "Feature", "properties": {"norad_id": 33376, "name": "GALAXY 19 (G-19)", "group": "intelsat", "lat": -0.012787749515506442, "lon": -29.408935525978507, "alt_km": 35780.89094923464, "timestamp": "2025-12-04T23:34:05.398462+00:00", "meta": {"OBJECT_NAME": "GALAXY 19 (G-19)", "OBJECT_ID": "2008-045A", "EPOCH": "2025-12-04T13:15:52.264800", "MEAN_MOTION": 1.00270748, "ECCENTRICITY": 0.0003382, "INCLINATION": 0.015, "RA_OF_ASC_NODE": 20.2783, "ARG_OF_PERICENTER": 242.9644, "MEAN_ANOMALY": 272.3552, "EPHEMERIS_TYPE": 0, "CLASSIFICATION_TYPE": "U", "NORAD_CAT_ID": 33376, "ELEMENT_SET_NO": 999, "REV_AT_EPOCH": 6295, "BSTAR": 0, "MEAN_MOTION_DOT": -1.25e-06, "MEAN_MOTION_DDOT": 0}, "tle": {"line1": "1 33376U 08045A   25338.55268825 -.00000125  00000+0  00000+0 0  9998", "line2": "2 33376   0.0150  20.2783 0003382 242.9644 272.3552  1.00270748 62956"}}, "geometry": {"type": "Point", "coordinates": [-29.408935525978507, -0.012787749515506442]}}, {"type": "Feature", "properties": {"norad_id": 35493, "name": "FM-5", "group": "intelsat", "lat": 0.024147917167134842, "lon": -18.612584253097275, "alt_km": 35791.22972455985, "timestamp": "2025-12-04T23:34:05.398473+00:00", "meta": {"OBJECT_NAME": "FM-5", "OBJECT_ID": "2009-034A", "EPOCH": "2025-12-04T13:18:59.465952", "MEAN_MOTION": 1.00264686, "ECCENTRICITY": 7.53e-05, "INCLINATION": 0.0188, "RA_OF_ASC_NODE": 288.8393, "ARG_OF_PERICENTER": 240.0351, "MEAN_ANOMALY": 18.3463, "EPHEMERIS_TYPE": 0, "CLASSIFICATION_TYPE": "U", "NORAD_CAT_ID": 35493, "ELEMENT_SET_NO": 999, "REV_AT_EPOCH": 4469, "BSTAR": 0, "MEAN_MOTION_DOT": -1.85e-06, "MEAN_MOTION_DDOT": 0}, "tle": {"line1": "1 35493U 09034A   25338.55485493 -.00000185  00000+0  00000+0 0  9997", "line2": "2 35493   0.0188 288.8393 0000753 240.0351  18.3463  1.00264686 44695"}}, "geometry": {"type": "Point", "coordinates": [-18.612584253097275, 0.024147917167134842]}}, {"type": "Feature", "properties": {"norad_id": 36097, "name": "INTELSAT 14 (IS-14)", "group": "intelsat", "lat": 0.03471680318074343, "lon": 22.58093439606213, "alt_km": 35793.146368838876, "timestamp": "2025-12-04T23:34:05.398498+00:00", "meta": {"OBJECT_NAME": "INTELSAT 14 (IS-14)", "OBJECT_ID": "2009-064A", "EPOCH": "2025-12-04T10:05:14.586144", "MEAN_MOTION": 1.00271085, "ECCENTRICITY": 0.0002688, "INCLINATION": 0.0131, "RA_OF_ASC_NODE": 311.6837, "ARG_OF_PERICENTER": 304.2018, "MEAN_ANOMALY": 283.926, "EPHEMERIS_TYPE": 0, "CLASSIFICATION_TYPE": "U", "NORAD_CAT_ID": 36097, "ELEMENT_SET_NO": 999, "REV_AT_EPOCH": 5865, "BSTAR": 0, "MEAN_MOTION_DOT": -2.58e-06, "MEAN_MOTION_DDOT": 0}, "tle": {"line1": "1 36097U 09064A   25338.42030771 -.00000258  00000+0  00000+0 0  9993", "line2": "2 36097   0.0131 311.6837 0002688 304.2018 283.9260  1.00271085 58651"}}, "geometry": {"type": "Point", "coordinates": [22.58093439606213, 0.03471680318074343]}}, {"type": "Feature", "properties": {"norad_id": 36106, "name": "INTELSAT 15 (IS-15)", "group": "intelsat", "lat": -0.009800293964518352, "lon": 152.67952254757378, "alt_km": 35788.73970867034, "timestamp": "2025-12-04T23:34:05.398514+00:00", "meta": {"OBJECT_NAME": "INTELSAT 15 (IS-15)", "OBJECT_ID": "2009-067A", "EPOCH": "2025-12-04T12:25:12.120096", "MEAN_MOTION": 1.00270193, "ECCENTRICITY": 0.0002481, "INCLINATION": 0.0067, "RA_OF_ASC_NODE": 304.2983, "ARG_OF_PERICENTER": 310.3847, "MEAN_ANOMALY": 90.3665, "EPHEMERIS_TYPE": 0, "CLASSIFICATION_TYPE": "U", "NORAD_CAT_ID": 36106, "ELEMENT_SET_NO": 999, "REV_AT_EPOCH": 3927, "BSTAR": 0, "MEAN_MOTION_DOT": -1.7e-06, "MEAN_MOTION_DDOT": 0}, "tle": {"line1": "1 36106U 09067A   25338.51750139 -.00000170  00000+0  00000+0 0  9997", "line2": "2 36106   0.0067 304.2983 0002481 310.3847  90.3665  1.00270193 39274"}}, "geometry": {"type": "Point", "coordinates": [152.67952254757378, -0.009800293964518352]}}, {"type": "Feature", "properties": {"norad_id": 36131, "name": "DIRECTV 12", "group": "intelsat", "lat": 7.339276945959064e-08, "lon": -35.175570270177076, "alt_km": 35786.805926850066, "timestamp": "2025-12-04T23:34:05.398526+00:00", "meta": {"OBJECT_NAME": "DIRECTV 12", "OBJECT_ID": "2009-075A", "EPOCH": "2025-12-04T13:14:14.921376", "MEAN_MOTION": 1.00268273, "ECCENTRICITY": 8.1e-06, "INCLINATION": 0.0128, "RA_OF_ASC_NODE": 87.602, "ARG_OF_PERICENTER": 275.1839, "MEAN_ANOMALY": 166.679, "EPHEMERIS_TYPE": 0, "CLASSIFICATION_TYPE": "U", "NORAD_CAT_ID": 36131, "ELEMENT_SET_NO": 999, "REV_AT_EPOCH": 4460, "BSTAR": 0, "MEAN_MOTION_DOT": -8.8e-07, "MEAN_MOTION_DDOT": 0}, "tle": {"line1": "1 36131U 09075A   25338.55156159 -.00000088  00000+0  00000+0 0  9998", "line2": "2 36131   0.0128  87.6020 0000081 275.1839 166.6790  1.00268273 44602"}}, "geometry": {"type": "Point", "coordinates": [-35.175570270177076, 7.339276945959064e-08]}}, {"type": "Feature", "properties": {"norad_id": 36397, "name": "INTELSAT 16 (IS-16)", "group": "intelsat", "lat": 0.016707368165398147, "lon": -8.622790283755393, "alt_km": 35787.42035682198, "timestamp": "2025-12-04T23:34:05.398539+00:00", "meta": {"OBJECT_NAME": "INTELSAT 16 (IS-16)", "OBJECT_ID": "2010-006A", "EPOCH": "2025-12-04T11:39:05.593824", "MEAN_MOTION": 1.00271458, "ECCENTRICITY": 0.0002334, "INCLINATION": 0.0096, "RA_OF_ASC_NODE": 322.0431, "ARG_OF_PERICENTER": 292.3542, "MEAN_ANOMALY": 277.7345, "EPHEMERIS_TYPE": 0, "CLASSIFICATION_TYPE": "U", "NORAD_CAT_ID": 36397, "ELEMENT_SET_NO": 999, "REV_AT_EPOCH": 5770, "BSTAR": 0, "MEAN_MOTION_DOT": -2.3e-06, "MEAN_MOTION_DDOT": 0}, "tle": {"line1": "1 36397U 10006A   25338.48548141 -.00000230  00000+0  00000+0 0  9995", "line2": "2 36397   0.0096 322.0431 0002334 292.3542 277.7345  1.00271458 57701"}}, "geometry": {"type": "Point", "coordinates": [-8.622790283755393, 0.016707368165398147]}}, {"type": "Feature", "properties": {"norad_id": 37185, "name": "XM-5", "group": "intelsat", "lat": 0.0329443577402566, "lon": -47.63031970200959, "alt_km": 35790.714294643505, "timestamp": "2025-12-04T23:34:05.398551+00:00", "meta": {"OBJECT_NAME": "XM-5", "OBJECT_ID": "2010-053A", "EPOCH": "2025-12-04T11:27:59.156928", "MEAN_MOTION": 1.0027279, "ECCENTRICITY": 0.0001333, "INCLINATION": 0.0598, "RA_OF_ASC_NODE": 273.2827, "ARG_OF_PERICENTER": 247.1051, "MEAN_ANOMALY": 329.9691, "EPHEMERIS_TYPE": 0, "CLASSIFICATION_TYPE": "U", "NORAD_CAT_ID": 37185, "ELEMENT_SET_NO": 999, "REV_AT_EPOCH": 5553, "BSTAR": 0, "MEAN_MOTION_DOT": -8e-08, "MEAN_MOTION_DDOT": 0}, "tle": {"line1": "1 37185U 10053A   25338.47776802 -.00000008  00000+0  00000+0 0  9992", "line2": "2 37185   0.0598 273.2827 0001333 247.1051 329.9691  1.00272790 55534"}}, "geometry": {"type": "Point", "coordinates": [-47.63031970200959, 0.0329443577402566]}}, {"type": "Feature", "properties": {"norad_id": 37238, "name": "INTELSAT 17 (IS-17)", "group": "intelsat", "lat": -0.004838133353115441, "lon": 133.52269079131122, "alt_km": 35790.92392665637, "timestamp": "2025-12-04T23:34:05.398563+00:00", "meta": {"OBJECT_NAME": "INTELSAT 17 (IS-17)", "OBJECT_ID": "2010-065B", "EPOCH": "2025-12-04T14:02:25.306368", "MEAN_MOTION": 1.00271299, "ECCENTRICITY": 0.0002391, "INCLINATION": 0.013, "RA_OF_ASC_NODE": 289.3203, "ARG_OF_PERICENTER": 321.9563, "MEAN_ANOMALY": 98.9819, "EPHEMERIS_TYPE": 0, "CLASSIFICATION_TYPE": "U", "NORAD_CAT_ID": 37238, "ELEMENT_SET_NO": 999, "REV_AT_EPOCH": 5129, "BSTAR": 0, "MEAN_MOTION_DOT": 1.3e-07, "MEAN_MOTION_DDOT": 0}, "tle": {"line1": "1 37238U 10065B   25338.58501512  .00000013  00000+0  00000+0 0  9995", "line2": "2 37238   0.0130 289.3203 0002391 321.9563  98.9819  1.00271299 51292"}}, "geometry": {"type": "Point", "coordinates": [133.52269079131122, -0.004838133353115441]}}, {"type": "Feature", "properties": {"norad_id": 37392, "name": "INTELSAT 28 (IS-28)", "group": "intelsat", "lat": -0.962006061861243, "lon": 35.88678820447225, "alt_km": 35799.22462780036, "timestamp": "2025-12-04T23:34:05.398574+00:00", "meta": {"OBJECT_NAME": "INTELSAT 28 (IS-28)", "OBJECT_ID": "2011-016A", "EPOCH": "2025-12-04T10:09:06.715296", "MEAN_MOTION": 1.00271009, "ECCENTRICITY": 0.0004125, "INCLINATION": 1.3016, "RA_OF_ASC_NODE": 85.1558, "ARG_OF_PERICENTER": 173.9289, "MEAN_ANOMALY": 294.9856, "EPHEMERIS_TYPE": 0, "CLASSIFICATION_TYPE": "U", "NORAD_CAT_ID": 37392, "ELEMENT_SET_NO": 999, "REV_AT_EPOCH": 5133, "BSTAR": 0, "MEAN_MOTION_DOT": -2.1e-06, "MEAN_MOTION_DDOT": 0}, "tle": {"line1": "1 37392U 11016A   25338.42299439 -.00000210  00000+0  00000+0 0  9998", "line2": "2 37392   1.3016  85.1558 0004125 173.9289 294.9856  1.00271009 51335"}}, "geometry": {"type": "Point", "coordinates": [35.88678820447225, -0.962006061861243]}}]}